[{"OBJECT_NAME":"ZACUBE-1 (TSHEPISOSAT)","OBJECT_ID":"2013-066B","EPOCH":"2026-03-09T22:19:27.469056","MEAN_MOTION":15.00329659,"ECCENTRICITY":0.00425262,"INCLINATION":97.8171,"RA_OF_ASC_NODE":30.7553,"ARG_OF_PERICENTER":219.1599,"MEAN_ANOMALY":140.6545,"EPHEMERIS_TYPE":0,"CLASSIFICATION_TYPE":"U","NORAD_CAT_ID":39417,"ELEMENT_SET_NO":999,"REV_AT_EPOCH":66584,"BSTAR":0.00042975473,"MEAN_MOTION_DOT":5.431e-5,"MEAN_MOTION_DDOT":0},{"OBJECT_NAME":"COSMOS 2251 DEB","OBJECT_ID":"1993-036SS","EPOCH":"2026-03-09T22:59:54.978144","MEAN_MOTION":15.02003149,"ECCENTRICITY":0.00206055,"INCLINATION":74.0288,"RA_OF_ASC_NODE":253.6967,"ARG_OF_PERICENTER":277.4018,"MEAN_ANOMALY":234.4946,"EPHEMERIS_TYPE":0,"CLASSIFICATION_TYPE":"U","NORAD_CAT_ID":34449,"ELEMENT_SET_NO":999,"REV_AT_EPOCH":89999,"BSTAR":0.0029470254,"MEAN_MOTION_DOT":0.00038984,"MEAN_MOTION_DDOT":0}]
